KUIPER-00152            
1 65772U 25217L   25352.00002315 -.01680896  00000+0 -59355-1 0  9999
2 65772  51.8749  38.5881 0002943  31.8162 174.0035 15.31884749  3356
KUIPER-00153            
1 65773U 25217M   25351.85636975  .00009333  00000+0  56414-3 0  9990
2 65773  51.8788  48.3410 0013132  38.3221 321.8686 15.11248189 12711
KUIPER-00155            
1 65774U 25217N   25351.44434078  .00034450  00000+0  92442-3 0  9995
2 65774  51.8663  41.9715 0008492  38.4727 321.6863 15.37601509 12763
KUIPER-00156            
1 65775U 25217P   25351.56324143  .00054725  00000+0  13790-2 0  9995
2 65775  51.8735  40.5784 0003288  29.7708 330.3466 15.39349351 12790
KUIPER-00158            
1 65776U 25217Q   25352.00002315  .00003025  00000+0  38818-3 0  9996
2 65776  51.8986  47.0084 0007513   8.1467  60.2129 14.83871617  5051
KUIPER-00163            
1 65777U 25217R   25352.00002315  .00000429  00000+0  83637-4 0  9992
2 65777  51.8980  49.2470 0001248  18.6888 202.5122 14.80870138  4889
KUIPER-00165            
1 65778U 25217S   25352.00002315 -.00284953  00000+0 -15754-1 0  9993
2 65778  51.8848  40.4073 0004721  34.1094 301.9064 15.14765360  2836
KUIPER-00166            
1 65779U 25217T   25351.83878583  .00028167  00000+0  72274-3 0  9995
2 65779  51.8712  39.4164 0003956   3.7168 356.3848 15.39108744 12838
